2025-274G               
1 66656U 25274G   26147.03789080  .00002322  00000+0  22678-3 0  9990
2 66656  97.7484  76.5888 0015386  70.2970 289.9908 14.93271142 27064
SPIRONE                 
1 66657U 25274H   26147.28451889  .00002725  00000+0  26416-3 0  9992
2 66657  97.7482  76.8762 0013790  84.5403 275.7389 14.93445779 27103
COSMIC                  
1 66658U 25274J   26147.03226692  .00004098  00000+0  38767-3 0  9995
2 66658  97.7480  76.7421 0014513  86.7865 273.5016 14.94133102 27077
JACK K                  
1 66659U 25274K   26146.77619345  .00001775  00000+0  17267-3 0  9998
2 66659  97.7486  76.4727 0015054  89.1520 271.1424 14.93735185 27037
K-HERO                  
1 66660U 25274L   26147.29498303  .00002509  00000+0  24102-3 0  9999
2 66660  97.7490  77.0321 0015674  88.2180 272.0835 14.93869025 27117
SNUGLITE-III            
1 66661U 25274M   26147.28338400  .00002418  00000+0  23211-3 0  9999
2 66661  97.7487  77.0406 0016252  89.3086 270.9996 14.93918487 27110
E3T-1 (E3TESTER-1)      
1 66662U 25274N   26147.27011660  .00002353  00000+0  22500-3 0  9993
2 66662  97.7486  77.0615 0016561  88.6916 271.6201 14.94089602 27115
SOYUZ-MS 28             
1 66664U 25275A   26147.16367648  .00012541  00000+0  23194-3 0  9994
2 66664  51.6335  44.1780 0007390 102.4616 257.7200 15.49411560568150
FORMOSAT-8A             
1 66666U 25276A   26147.20450697  .00001706  00000+0  13909-3 0  9993
2 66666  97.6533 221.7631 0005011 347.9969  12.1135 15.00786139 26912
PELICAN-5               
1 66667U 25276B   26147.20523319  .00006023  00000+0  21699-3 0  9998
2 66667  97.4110 222.2478 0004219  65.5248 294.6432 15.28926195 27319
TRANSPORTER-15 OBJECT C 
1 66668U 25276C   26147.18570351  .00037718  00000+0  14420-2 0  9992
2 66668  97.4062 221.5392 0008056  91.0669 269.1492 15.26469848 27281
TRANSPORTER-15 OBJECT D 
1 66669U 25276D   26147.25677632  .00035271  00000+0  13633-2 0  9998
2 66669  97.4077 221.6363 0008215  94.2002 266.0175 15.26119556 27293
HUNITY                  
1 66670U 25276E   26147.14903970  .00032032  00000+0  12517-2 0  9997
2 66670  97.4084 221.4960 0007962  94.4598 265.7550 15.25779503 27278
TRANSPORTER-15 OBJECT F 
1 66671U 25276F   26147.20361312  .00014153  00000+0  63856-3 0  9990
2 66671  97.4215 221.2690 0007222  80.3496 279.8556 15.21090739 27245
BRO-17                  
1 66672U 25276G   26147.15344795  .00003801  00000+0  19104-3 0  9996
2 66672  97.4198 220.6781 0008382  79.2032 281.0145 15.17829699 27206
TRANSPORTER-15 OBJECT H 
1 66673U 25276H   26147.13824011  .00016852  00000+0  73263-3 0  9995
2 66673  97.4168 221.2251 0007677  93.3664 266.8451 15.22317580 27249
BRO-20                  
1 66674U 25276J   26147.20081227  .00004742  00000+0  23630-3 0  9996
2 66674  97.4175 220.7148 0008041  81.6952 278.5193 15.18009760 27216
VEERY-0G                
1 66675U 25276K   26147.17968561  .00011408  00000+0  52560-3 0  9999
2 66675  97.4184 221.0682 0007396  84.8209 275.3870 15.20419398 27230
TRANSPORTER-15 OBJECT L 
1 66676U 25276L   26147.15094594  .00006418  00000+0  31165-3 0  9997
2 66676  97.4183 220.8079 0007565  83.1814 277.0281 15.18781239 27215
AE5RC                   
1 66677U 25276M   26147.18308234  .00013003  00000+0  56743-3 0  9997
2 66677  97.4186 221.3680 0006833  92.7964 267.4055 15.22254985 27256
LEMUR-2-DEANANDMAEVE    
1 66678U 25276N   26147.17712617  .00008185  00000+0  38921-3 0  9994
2 66678  97.4220 221.0055 0007320  78.8131 281.3926 15.19423797 27226
LILIUM-2                
1 66679U 25276P   26147.14436958  .00002210  00000+0  11250-3 0  9992
2 66679  97.4160 220.6111 0007672  83.5168 276.6939 15.17823334 27209
OTTER                   
1 66680U 25276Q   26147.20800637  .00007575  00000+0  36554-3 0  9993
2 66680  97.4211 220.9444 0007494  77.8416 282.3658 15.18937325 27225
TRANSPORTER-15 OBJECT R 
1 66681U 25276R   26147.19897091  .00020526  00000+0  86757-3 0  9993
2 66681  97.4122 221.3698 0006868  97.3698 262.8320 15.23239206 27268
ION SCV-022             
1 66682U 25276S   26147.19661409  .00001109  00000+0  99927-4 0  9996
2 66682  97.5293 218.6289 0003474 228.5818 131.5106 14.97489152 26930
6GSTARLAB               
1 66683U 25276T   26147.16599884  .00003187  00000+0  15876-3 0  9999
2 66683  97.4251 220.9391 0007473  74.4920 285.7139 15.18259682 27216
MICE-1                  
1 66684U 25276U   26147.16670918  .00004413  00000+0  21397-3 0  9996
2 66684  97.4274 221.1467 0007044  74.3452 285.8559 15.19010057 27222
AE5RA                   
1 66685U 25276V   26147.18272918  .00013539  00000+0  59018-3 0  9997
2 66685  97.4225 221.4532 0006312  90.4669 269.7290 15.22284261 27251
LEMUR-2-STAS-GORBUK     
1 66686U 25276W   26147.18703772  .00006930  00000+0  33303-3 0  9991
2 66686  97.4255 221.0710 0006869  77.5577 282.6426 15.19115755 27229
LEO EXPRESS 3           
1 66687U 25276X   26147.19023121  .00011476  00000+0  52759-3 0  9993
2 66687  97.4266 221.1598 0005597 209.0234 151.0691 15.20505636 27233
