OBJECT_NAME,OBJECT_ID,EPOCH,MEAN_MOTION,ECCENTRICITY,INCLINATION,RA_OF_ASC_NODE,ARG_OF_PERICENTER,MEAN_ANOMALY,EPHEMERIS_TYPE,CLASSIFICATION_TYPE,NORAD_CAT_ID,ELEMENT_SET_NO,REV_AT_EPOCH,BSTAR,MEAN_MOTION_DOT,MEAN_MOTION_DDOT
2025-274G,2025-274G,2026-05-27T00:54:33.765120,14.93271142,.00153866,97.7484,76.5888,70.2970,289.9908,0,U,66656,999,2706,.22678094E-3,.2322E-4,0
SPIRONE,2025-274H,2026-05-27T06:49:42.432096,14.93445779,.00137908,97.7482,76.8762,84.5403,275.7389,0,U,66657,999,2710,.26415791E-3,.2725E-4,0
COSMIC,2025-274J,2026-05-27T00:46:27.861888,14.94133102,.00145135,97.7480,76.7421,86.7865,273.5016,0,U,66658,999,2707,.38766967E-3,.4098E-4,0
JACK K,2025-274K,2026-05-26T18:37:43.114080,14.93735185,.00150545,97.7486,76.4727,89.1520,271.1424,0,U,66659,999,2703,.17267207E-3,.1775E-4,0
K-HERO,2025-274L,2026-05-27T07:04:46.533792,14.93869025,.00156741,97.7490,77.0321,88.2180,272.0835,0,U,66660,999,2711,.24102422E-3,.2509E-4,0
SNUGLITE-III,2025-274M,2026-05-27T06:48:04.377600,14.93918487,.00162522,97.7487,77.0406,89.3086,270.9996,0,U,66661,999,2711,.23211211E-3,.2418E-4,0
E3T-1 (E3TESTER-1),2025-274N,2026-05-27T06:28:58.074240,14.94089602,.00165615,97.7486,77.0615,88.6916,271.6201,0,U,66662,999,2711,.22499815E-3,.2353E-4,0
SOYUZ-MS 28,2025-275A,2026-05-27T03:55:41.647872,15.49411560,.00073908,51.6335,44.1780,102.4616,257.7200,0,U,66664,999,56815,.23193675E-3,.12541E-3,0
FORMOSAT-8A,2025-276A,2026-05-27T04:54:29.402208,15.00786139,.0005011,97.6533,221.7631,347.9969,12.1135,0,U,66666,999,2691,.13908987E-3,.1706E-4,0
PELICAN-5,2025-276B,2026-05-27T04:55:32.147616,15.28926195,.00042193,97.4110,222.2478,65.5248,294.6432,0,U,66667,999,2731,.21699316E-3,.6023E-4,0
TRANSPORTER-15 OBJECT C,2025-276C,2026-05-27T04:27:24.783264,15.26469848,.00080562,97.4062,221.5392,91.0669,269.1492,0,U,66668,999,2728,.14420186E-2,.37718E-3,0
TRANSPORTER-15 OBJECT D,2025-276D,2026-05-27T06:09:45.474048,15.26119556,.00082152,97.4077,221.6363,94.2002,266.0175,0,U,66669,999,2729,.13632981E-2,.35271E-3,0
HUNITY,2025-276E,2026-05-27T03:34:37.030080,15.25779503,.00079627,97.4084,221.4960,94.4598,265.7550,0,U,66670,999,2727,.12516705E-2,.32032E-3,0
TRANSPORTER-15 OBJECT F,2025-276F,2026-05-27T04:53:12.173568,15.21090739,.00072224,97.4215,221.2690,80.3496,279.8556,0,U,66671,999,2724,.63855996E-3,.14153E-3,0
BRO-17,2025-276G,2026-05-27T03:40:57.902880,15.17829699,.00083822,97.4198,220.6781,79.2032,281.0145,0,U,66672,999,2720,.19103766E-3,.3801E-4,0
TRANSPORTER-15 OBJECT H,2025-276H,2026-05-27T03:19:03.945504,15.22317580,.00076776,97.4168,221.2251,93.3664,266.8451,0,U,66673,999,2724,.73263398E-3,.16852E-3,0
BRO-20,2025-276J,2026-05-27T04:49:10.180128,15.18009760,.0008041,97.4175,220.7148,81.6952,278.5193,0,U,66674,999,2721,.23629678E-3,.4742E-4,0
VEERY-0G,2025-276K,2026-05-27T04:18:44.836704,15.20419398,.00073967,97.4184,221.0682,84.8209,275.3870,0,U,66675,999,2723,.52559889E-3,.11408E-3,0
TRANSPORTER-15 OBJECT L,2025-276L,2026-05-27T03:37:21.729216,15.18781239,.00075651,97.4183,220.8079,83.1814,277.0281,0,U,66676,999,2721,.31164685E-3,.6418E-4,0
AE5RC,2025-276M,2026-05-27T04:23:38.314176,15.22254985,.0006833,97.4186,221.3680,92.7964,267.4055,0,U,66677,999,2725,.56743037E-3,.13003E-3,0
LEMUR-2-DEANANDMAEVE,2025-276N,2026-05-27T04:15:03.701088,15.19423797,.000732,97.4220,221.0055,78.8131,281.3926,0,U,66678,999,2722,.38921242E-3,.8185E-4,0
LILIUM-2,2025-276P,2026-05-27T03:27:53.531712,15.17823334,.00076722,97.4160,220.6111,83.5168,276.6939,0,U,66679,999,2720,.11250151E-3,.221E-4,0
OTTER,2025-276Q,2026-05-27T04:59:31.750368,15.18937325,.0007494,97.4211,220.9444,77.8416,282.3658,0,U,66680,999,2722,.36554195E-3,.7575E-4,0
TRANSPORTER-15 OBJECT R,2025-276R,2026-05-27T04:46:31.086624,15.23239206,.00068685,97.4122,221.3698,97.3698,262.8320,0,U,66681,999,2726,.86756796E-3,.20526E-3,0
ION SCV-022,2025-276S,2026-05-27T04:43:07.457376,14.97489152,.00034742,97.5293,218.6289,228.5818,131.5106,0,U,66682,999,2693,.99927169E-4,.1109E-4,0
6GSTARLAB,2025-276T,2026-05-27T03:59:02.299776,15.18259682,.00074732,97.4251,220.9391,74.4920,285.7139,0,U,66683,999,2721,.15876344E-3,.3187E-4,0
MICE-1,2025-276U,2026-05-27T04:00:03.673152,15.19010057,.00070441,97.4274,221.1467,74.3452,285.8559,0,U,66684,999,2722,.21397394E-3,.4413E-4,0
AE5RA,2025-276V,2026-05-27T04:23:07.801152,15.22284261,.0006312,97.4225,221.4532,90.4669,269.7290,0,U,66685,999,2725,.59018152E-3,.13539E-3,0
LEMUR-2-STAS-GORBUK,2025-276W,2026-05-27T04:29:20.059008,15.19115755,.00068695,97.4255,221.0710,77.5577,282.6426,0,U,66686,999,2722,.33303261E-3,.693E-4,0
LEO EXPRESS 3,2025-276X,2026-05-27T04:33:55.976544,15.20505636,.00055974,97.4266,221.1598,209.0234,151.0691,0,U,66687,999,2723,.52759181E-3,.11476E-3,0
